NORAD_CAT_ID,OBJECT_NAME,OBJECT_TYPE,EPOCH,MEAN_MOTION,ECCENTRICITY,INCLINATION,RA_OF_ASC_NODE,ARG_OF_PERICENTER,MEAN_ANOMALY,BSTAR,MEAN_MOTION_DOT,MEAN_MOTION_DDOT,TLE_LINE0,TLE_LINE1,TLE_LINE2,SEMIMAJOR_AXIS,PERIOD,APOGEE,PERIGEE,DECAYED
55635.0,STARLINK-5495,PAYLOAD,2023-06-07 22:00:00,15.3312974,0.0003385,69.9991,201.7719,267.1458,357.8599,-0.028862,-0.00854622,0.0,0 STARLINK-5495,1 55635U 23021H   23158.91667824 -.00854622  00000-0 -28862-1 0  9990,2 55635  69.9991 201.7719 0003385 267.1458 357.8599 15.33129740 17793,6844.618,93.926,468.8,464.166,0.0
55635.0,STARLINK-5495,PAYLOAD,2023-06-08 12:31:36,15.33698091,0.0003272,69.9969,200.1668,277.4653,82.6153,-0.0086662,-0.00273354,0.0,0 STARLINK-5495,1 55635U 23021H   23159.52195524 -.00273354  00000-0 -86662-2 0  9991,2 55635  69.9969 200.1668 0003272 277.4653  82.6153 15.33698091 18194,6842.927,93.891,467.031,462.553,0.0
55635.0,STARLINK-5495,PAYLOAD,2023-06-08 14:00:01,15.31852919,0.0003603,69.9991,200.0001,272.7997,69.1338,-0.031754,-0.00899378,0.0,0 STARLINK-5495,1 55635U 23021H   23159.58334491 -.00899378  00000-0 -31754-1 0  9996,2 55635  69.9991 200.0001 0003603 272.7997  69.1338 15.31852919 17908,6848.421,94.004,472.754,467.819,0.0
55635.0,STARLINK-5495,PAYLOAD,2023-06-08 22:00:00,15.31167853,0.000355,69.9992,199.1154,268.1865,111.0526,-0.030373,-0.00846303,0.0,0 STARLINK-5495,1 55635U 23021H   23159.91667824 -.00846303  00000-0 -30373-1 0  9998,2 55635  69.9992 199.1154 0003550 268.1865 111.0526 15.31167853  1309,6850.464,94.046,474.761,469.897,0.0
55635.0,STARLINK-5495,PAYLOAD,2023-06-09 06:00:00,15.30573216,0.0003564,69.9997,198.2318,269.4848,146.2536,-0.035134,-0.0096351,0.0,0 STARLINK-5495,1 55635U 23021H   23160.25001157 -.00963510  00000-0 -35134-1 0  9998,2 55635  69.9997 198.2318 0003564 269.4848 146.2536 15.30573216 18005,6852.238,94.082,476.545,471.661,0.0
55635.0,STARLINK-5495,PAYLOAD,2023-06-09 12:02:49,15.31780227,0.0004343,69.9966,197.5672,272.6805,87.3874,-0.0087902,-0.00261508,0.0,0 STARLINK-5495,1 55635U 23021H   23160.50196068 -.00261508  00000-0 -87902-2 0  9991,2 55635  69.9966 197.5672 0004343 272.6805  87.3874 15.31780227 18341,6848.638,94.008,473.477,467.528,0.0
55635.0,STARLINK-5495,PAYLOAD,2023-06-09 22:00:00,15.29214049,0.0003393,69.9995,196.4669,268.7629,217.6657,-0.032403,-0.00849443,0.0,0 STARLINK-5495,1 55635U 23021H   23160.91667824 -.00849443  00000-0 -32403-1 0  9994,2 55635  69.9995 196.4669 0003393 268.7629 217.6657 15.29214049 18103,6856.298,94.166,480.489,475.836,0.0
55635.0,STARLINK-5495,PAYLOAD,2023-06-10 06:00:02,15.28611622,0.0003387,69.9999,195.5857,270.7991,249.8493,-0.037077,-0.00957392,0.0,0 STARLINK-5495,1 55635U 23021H   23161.25002315 -.00957392  00000-0 -37077-1 0  9995,2 55635  69.9999 195.5857 0003387 270.7991 249.8493 15.28611622 18151,6858.099,94.203,482.287,477.641,0.0
55635.0,STARLINK-5495,PAYLOAD,2023-06-10 14:00:01,15.2794172,0.0003352,69.9997,194.7056,273.9854,279.9831,-0.03614,-0.00906074,0.0,0 STARLINK-5495,1 55635U 23021H   23161.58334491 -.00906074  00000-0 -36140-1 0  9995,2 55635  69.9997 194.7056 0003352 273.9854 279.9831 15.27941720  1309,6860.103,94.244,484.268,479.669,0.0
55635.0,STARLINK-5495,PAYLOAD,2023-06-10 22:00:00,15.27261554,0.0003312,69.9997,193.8262,266.0052,320.571,-0.034564,-0.00853103,0.0,0 STARLINK-5495,1 55635U 23021H   23161.91667824 -.00853103  00000-0 -34564-1 0  9993,2 55635  69.9997 193.8262 0003312 266.0052 320.5710 15.27261554 18258,6862.14,94.286,486.278,481.732,0.0
55635.0,STARLINK-5495,PAYLOAD,2023-06-11 06:00:00,15.26651697,0.0003402,70.0001,192.9477,269.005,349.3844,-0.039156,-0.00952685,0.0,0 STARLINK-5495,1 55635U 23021H   23162.25001157 -.00952685  00000-0 -39156-1 0  9999,2 55635  70.0001 192.9477 0003402 269.0050 349.3844 15.26651697 18309,6863.967,94.324,488.167,483.497,0.0
55635.0,STARLINK-5495,PAYLOAD,2023-06-11 14:00:01,15.25995748,0.0003477,69.9997,192.0701,273.7771,15.6438,-0.038972,-0.00931206,0.0,0 STARLINK-5495,1 55635U 23021H   23162.58334491 -.00931206  00000-0 -38972-1 0  9996,2 55635  69.9997 192.0701 0003477 273.7771  15.6438 15.25995748  1306,6865.934,94.365,490.186,485.412,0.0
55635.0,STARLINK-5495,PAYLOAD,2023-06-11 22:00:00,15.25301046,0.0003447,69.9998,191.1936,268.0114,51.6774,-0.036509,-0.00849451,0.0,0 STARLINK-5495,1 55635U 23021H   23162.91667824 -.00849451  00000-0 -36509-1 0  9996,2 55635  69.9998 191.1936 0003447 268.0114  51.6774 15.25301046 18417,6868.019,94.408,492.251,487.516,0.0
55635.0,STARLINK-5495,PAYLOAD,2023-06-12 06:00:00,15.24691798,0.0003467,69.9999,190.3177,270.8296,78.3242,-0.041367,-0.00948959,0.0,0 STARLINK-5495,1 55635U 23021H   23163.25001157 -.00948959  00000-0 -41367-1 0  9996,2 55635  69.9999 190.3177 0003467 270.8296  78.3242 15.24691798 18466,6869.848,94.445,494.095,489.331,0.0
55635.0,STARLINK-5495,PAYLOAD,2023-06-12 14:00:01,15.24049434,0.000348,69.9996,189.4428,276.0724,101.8242,-0.042062,-0.00946692,0.0,0 STARLINK-5495,1 55635U 23021H   23163.58335648 -.00946692  00000-0 -42062-1 0  9992,2 55635  69.9996 189.4428 0003480 276.0724 101.8242 15.24049434  1301,6871.778,94.485,496.035,491.252,0.0
55635.0,STARLINK-5495,PAYLOAD,2023-06-12 22:00:00,15.2334204,0.0003404,69.9996,188.5688,270.0628,135.6964,-0.038531,-0.00845697,0.0,0 STARLINK-5495,1 55635U 23021H   23163.91667824 -.00845697  00000-0 -38531-1 0  9992,2 55635  69.9996 188.5688 0003404 270.0628 135.6964 15.23342040 18562,6873.905,94.529,498.11,493.431,0.0
55635.0,STARLINK-5495,PAYLOAD,2023-06-13 00:00:00,15.23214695,0.0003242,69.9996,188.3506,269.7909,232.8087,-0.041295,-0.00909336,0.0,0 STARLINK-5495,1 55635U 23021H   23164.00001157 -.00909336  00000-0 -41295-1 0  9996,2 55635  69.9996 188.3506 0003242 269.7909 232.8087 15.23214695  1300,6874.289,94.537,498.382,493.925,0.0
55635.0,STARLINK-5495,PAYLOAD,2023-06-13 06:00:02,15.22730331,0.000341,69.9997,187.6957,272.7882,160.1532,-0.043542,-0.00942554,0.0,0 STARLINK-5495,1 55635U 23021H   23164.25002315 -.00942554  00000-0 -43542-1 0  9996,2 55635  69.9997 187.6957 0003410 272.7882 160.1532 15.22730331 18613,6875.746,94.567,499.956,495.267,0.0
55635.0,STARLINK-5495,PAYLOAD,2023-06-13 14:00:01,15.22096019,0.0003344,69.9992,186.8234,277.8079,181.4002,-0.04489,-0.00952823,0.0,0 STARLINK-5495,1 55635U 23021H   23164.58334491 -.00952823  00000-0 -44890-1 0  9992,2 55635  69.9992 186.8234 0003344 277.8079 181.4002 15.22096019  1301,6877.656,94.606,501.821,497.222,0.0
55635.0,STARLINK-5495,PAYLOAD,2023-06-13 22:00:00,15.21388152,0.0003284,69.9992,185.9521,270.9641,213.8225,-0.040964,-0.00848305,0.0,0 STARLINK-5495,1 55635U 23021H   23164.91667824 -.00848305  00000-0 -40964-1 0  9995,2 55635  69.9992 185.9521 0003284 270.9641 213.8225 15.21388152  1300,6879.79,94.65,503.914,499.395,0.0
55635.0,STARLINK-5495,PAYLOAD,2023-06-14 06:00:00,15.2076554,0.000329,69.9992,185.0816,272.5855,236.9777,-0.045495,-0.00930298,0.0,0 STARLINK-5495,1 55635U 23021H   23165.25001157 -.00930298  00000-0 -45495-1 0  9991,2 55635  69.9992 185.0816 0003290 272.5855 236.9777 15.20765540 18765,6881.667,94.689,505.796,501.268,0.0
55635.0,STARLINK-5495,PAYLOAD,2023-06-14 14:00:01,15.20139857,0.000319,69.9987,184.2119,274.4286,259.1149,-0.047776,-0.00957044,0.0,0 STARLINK-5495,1 55635U 23021H   23165.58334491 -.00957044  00000-0 -47776-1 0  9999,2 55635  69.9987 184.2119 0003190 274.4286 259.1149 15.20139857  1302,6883.555,94.728,507.616,503.225,0.0
55635.0,STARLINK-5495,PAYLOAD,2023-06-14 22:00:00,15.19435939,0.0003182,69.9987,183.3433,266.3748,290.3971,-0.04362,-0.00862801,0.0,0 STARLINK-5495,1 55635U 23021H   23165.91667824 -.00862801  00000-0 -43620-1 0  9995,2 55635  69.9987 183.3433 0003182 266.3748 290.3971 15.19435939  1303,6885.681,94.772,509.737,505.355,0.0
55635.0,STARLINK-5495,PAYLOAD,2023-06-15 14:00:01,15.18185356,0.0003233,69.9982,181.6083,272.7983,328.0396,-0.050921,-0.00963219,0.0,0 STARLINK-5495,1 55635U 23021H   23166.58334491 -.00963219  00000-0 -50921-1 0  9997,2 55635  69.9982 181.6083 0003233 272.7983 328.0396 15.18185356 18963,6889.462,94.85,513.554,509.1,0.0
55635.0,STARLINK-5495,PAYLOAD,2023-06-15 20:00:01,15.17632524,0.0003162,69.9984,180.9586,268.7055,257.8766,-0.045521,-0.00855151,0.0,0 STARLINK-5495,1 55635U 23021H   23166.83334491 -.00855151  00000-0 -45521-1 0  9990,2 55635  69.9984 180.9586 0003162 268.7055 257.8766 15.17632524  1304,6891.135,94.885,515.179,510.821,0.0
55635.0,STARLINK-5495,PAYLOAD,2023-06-16 06:00:00,15.1684182,0.0003319,69.9983,179.877,270.7058,11.1029,-0.049917,-0.00912309,0.0,0 STARLINK-5495,1 55635U 23021H   23167.25001157 -.00912309  00000-0 -49917-1 0  9999,2 55635  69.9983 179.8770 0003319 270.7058  11.1029 15.16841820 19071,6893.53,94.934,517.683,513.107,0.0
55635.0,STARLINK-5495,PAYLOAD,2023-06-16 14:00:01,15.16229611,0.0003321,69.9979,179.0125,272.9624,28.1299,-0.054081,-0.00966788,0.0,0 STARLINK-5495,1 55635U 23021H   23167.58334491 -.00966788  00000-0 -54081-1 0  9993,2 55635  69.9979 179.0125 0003321 272.9624  28.1299 15.16229611  1300,6895.385,94.972,519.54,514.96,0.0
55635.0,STARLINK-5495,PAYLOAD,2023-06-16 22:00:00,15.15527778,0.0003348,69.998,178.149,265.0785,54.5466,-0.049262,-0.00870242,0.0,0 STARLINK-5495,1 55635U 23021H   23167.91667824 -.00870242  00000-0 -49262-1 0  9993,2 55635  69.9980 178.1490 0003348 265.0785  54.5466 15.15527778  1300,6897.514,95.016,521.688,517.069,0.0
55635.0,STARLINK-5495,PAYLOAD,2023-06-17 06:00:02,15.14881629,0.0003353,69.998,177.2863,268.6512,68.7822,-0.052409,-0.00906238,0.0,0 STARLINK-5495,1 55635U 23021H   23168.25002315 -.00906238  00000-0 -52409-1 0  9991,2 55635  69.9980 177.2863 0003353 268.6512  68.7822 15.14881629 19227,6899.475,95.057,523.653,519.027,0.0
55635.0,STARLINK-5495,PAYLOAD,2023-06-17 10:52:11,15.1623051,0.0003661,69.9977,176.7672,281.545,78.5307,-0.01445,-0.00270027,0.0,0 STARLINK-5495,1 55635U 23021H   23168.45291486 -.00270027  00000-0 -14450-1 0  9996,2 55635  69.9977 176.7672 0003661 281.5450  78.5307 15.16230510 19554,6895.382,94.972,519.772,514.723,0.0
